ONEWEB-0492             
1 54114U 22138B   25354.91457338  .00000068  00000+0  13643-3 0  9993
2 54114  87.9203 340.4431 0001723  79.2157 280.9170 13.19725593153325
ONEWEB-0495             
1 54115U 22138C   25354.89246550 -.00000054  00000+0 -16799-3 0  9995
2 54115  87.9200 340.4508 0002287  70.1504 289.9875 13.19724357153306
ONEWEB-0497             
1 54116U 22138D   25354.90510455  .00000047  00000+0  84176-4 0  9991
2 54116  87.9206 340.4351 0001831  83.1533 276.9808 13.19724886153296
ONEWEB-0499             
1 54117U 22138E   25354.88851636 -.00000019  00000+0 -78632-4 0  9999
2 54117  87.9205 340.4512 0002015  85.7268 274.4095 13.19726428153300
ONEWEB-0500             
1 54118U 22138F   25354.96670911  .00000025  00000+0  31049-4 0  9990
2 54118  87.9206 340.4235 0001764  84.5630 275.5704 13.19725431153328
ONEWEB-0501             
1 54119U 22138G   25354.92090824  .00000095  00000+0  20552-3 0  9999
2 54119  87.9209 340.4314 0002064  78.1802 281.9562 13.19724857153294
ONEWEB-0502             
1 54120U 22138H   25354.90668440  .00000029  00000+0  41071-4 0  9991
2 54120  87.9212 340.4159 0002061  82.1315 278.0051 13.19725333153311
ONEWEB-0503             
1 54121U 22138J   25354.89562643 -.00000034  00000+0 -11694-3 0  9993
2 54121  87.9213 340.4219 0001992  92.2779 267.8582 13.19724829153301
